{"type": "FeatureCollection", "features": [ {"type": "Feature", "properties": {"norad_id": 66923, "name": "HULIANWANG DIGUI 14J", "group": "last-30-days", "lat": -23.928665479491883, "lon": 115.32404503771166, "alt_km": 871.7401307481887, "timestamp": "2025-12-07T20:38:12.868741+00:00", "meta": {"OBJECT_NAME": "HULIANWANG DIGUI 14J", "OBJECT_ID": "2025-285J", "EPOCH": "2025-12-07T12:15:44.352864", "MEAN_MOTION": 14.06516015, "ECCENTRICITY": 0.0005403, "INCLINATION": 50.0087, "RA_OF_ASC_NODE": 138.6193, "ARG_OF_PERICENTER": 279.2419, "MEAN_ANOMALY": 80.7876, "EPHEMERIS_TYPE": 0, "CLASSIFICATION_TYPE": "U", "NORAD_CAT_ID": 66923, "ELEMENT_SET_NO": 999, "REV_AT_EPOCH": 17, "BSTAR": 0.00030586, "MEAN_MOTION_DOT": 3.57e-06, "MEAN_MOTION_DDOT": 0}, "tle": {"line1": "1 66923U 25285J   25341.51093001  .00000357  00000+0  30586-3 0  9991", "line2": "2 66923  50.0087 138.6193 0005403 279.2419  80.7876 14.06516015   178"}}, "geometry": {"type": "Point", "coordinates": [115.32404503771166, -23.928665479491883]}}, {"type": "Feature", "properties": {"norad_id": 66924, "name": "CZ-8A R/B", "group": "last-30-days", "lat": 49.288926870868224, "lon": -120.38527091706413, "alt_km": 699.1598151419448, "timestamp": "2025-12-07T20:38:12.868753+00:00", "meta": {"OBJECT_NAME": "CZ-8A R/B", "OBJECT_ID": "2025-285K", "EPOCH": "2025-12-06T12:19:51.036960", "MEAN_MOTION": 14.30448863, "ECCENTRICITY": 0.0118852, "INCLINATION": 50.0062, "RA_OF_ASC_NODE": 142.6566, "ARG_OF_PERICENTER": 84.4915, "MEAN_ANOMALY": 276.9544, "EPHEMERIS_TYPE": 0, "CLASSIFICATION_TYPE": "U", "NORAD_CAT_ID": 66924, "ELEMENT_SET_NO": 999, "REV_AT_EPOCH": 3, "BSTAR": 2.573e-05, "MEAN_MOTION_DOT": -9.5e-07, "MEAN_MOTION_DDOT": 0}, "tle": {"line1": "1 66924U 25285K   25340.51378515 -.00000095  00000+0  25730-4 0  9993", "line2": "2 66924  50.0062 142.6566 0118852  84.4915 276.9544 14.30448863    39"}}, "geometry": {"type": "Point", "coordinates": [-120.38527091706413, 49.288926870868224]}}]}